CSS (WENTIAN)           
1 53239U 22085A   23294.89415242  .00019410  00000+0  22134-3 0  9993
2 53239  41.4708 104.4334 0002363 167.9781 192.1115 15.61762734141648
STARLINK-4056           
1 53242U 22086A   23295.83263210  .00000954  00000+0  78020-4 0  9998
2 53242  53.2154 139.5609 0001576  92.3594 267.7579 15.08831906 70148
STARLINK-4047           
1 53243U 22086B   23295.88875187 -.00001405  00000+0 -66870-4 0  9990
2 53243  53.2146 144.2002 0001127  93.8653 266.2469 15.10467401 69580
STARLINK-4125           
1 53244U 22086C   23295.88922389  .00000324  00000+0  38466-4 0  9995
2 53244  53.2164 144.3182 0001461 101.4777 258.6380 15.08821598 70087
STARLINK-4124           
1 53245U 22086D   23295.89657331  .00002055  00000+0  14722-3 0  9990
2 53245  53.2152 144.2851 0001517  85.5797 274.5368 15.08833929 70100
STARLINK-4131           
1 53246U 22086E   23295.89289536 -.00001251  00000+0 -60531-4 0  9998
2 53246  53.2147 144.3012 0001132  95.8153 264.2969 15.08828547 68973
STARLINK-4061           
1 53247U 22086F   23296.17858177  .00007268  00000+0  47473-3 0  9995
2 53247  53.2156 138.2014 0001496  86.1470 273.9693 15.08801506 69693
STARLINK-4135           
1 53248U 22086G   23296.16752593  .00006231  00000+0  40928-3 0  9997
2 53248  53.2150 138.1731 0001519  99.5553 260.5611 15.08837151 69696
STARLINK-4128           
1 53249U 22086H   23295.83957402  .00000506  00000+0  49891-4 0  9995
2 53249  53.2166 134.5477 0001581 100.3574 259.7596 15.08829067 69716
STARLINK-4059           
1 53250U 22086J   23295.84229840 -.00001840  00000+0 -97513-4 0  9994
2 53250  53.2164 134.5262 0001523  95.0490 265.0676 15.08840838 69911
STARLINK-4129           
1 53251U 22086K   23295.83125240  .00000782  00000+0  67198-4 0  9991
2 53251  53.2173 134.5780 0001432 100.9836 259.1317 15.08835547 69890
STARLINK-4132           
1 53252U 22086L   23295.90116077  .00005040  00000+0  33452-3 0  9995
2 53252  53.2157 134.2166 0001613  76.3010 283.8161 15.08842730 69926
STARLINK-4133           
1 53253U 22086M   23295.82757626  .00002898  00000+0  20013-3 0  9995
2 53253  53.2152 134.5934 0001764  94.2830 265.8364 15.08836196 69894
STARLINK-4134           
1 53254U 22086N   23295.90212931  .00001240  00000+0  95976-4 0  9991
2 53254  53.2158 134.2697 0001529  92.2594 267.8573 15.08836146 69921
STARLINK-4142           
1 53255U 22086P   23295.82021225 -.00000159  00000+0  81128-5 0  9991
2 53255  53.2150 134.6281 0001421  99.4278 260.6875 15.08836716 69891
STARLINK-4147           
1 53256U 22086Q   23295.82389358  .00000045  00000+0  20904-4 0  9993
2 53256  53.2151 134.6085 0001492 104.1906 255.9252 15.08832806 69897
STARLINK-4144           
1 53257U 22086R   23295.87541243  .00003453  00000+0  23498-3 0  9998
2 53257  53.2147 134.3765 0001505  88.7802 271.3362 15.08836718 69724
STARLINK-4127           
1 53258U 22086S   23295.88277652  .00001404  00000+0  10629-3 0  9996
2 53258  53.2147 134.3464 0001480  76.6647 283.4510 15.08831148 69907
STARLINK-4140           
1 53259U 22086T   23295.83857109 -.00001295  00000+0 -63324-4 0  9994
2 53259  53.2154 134.1871 0001434  82.5488 277.5667 15.08833190 69720
STARLINK-4136           
1 53260U 22086U   23295.87909082  .00002476  00000+0  17364-3 0  9990
2 53260  53.2154 134.3634 0001327 108.1044 252.0092 15.08834959 69909
STARLINK-4062           
1 53261U 22086V   23295.86437432 -.00000318  00000+0 -19088-5 0  9997
2 53261  53.2144 134.4340 0001284  87.0688 273.0451 15.08830774 69908
STARLINK-4085           
1 53262U 22086W   23296.13669739  .00000894  00000+0  74291-4 0  9999
2 53262  53.2160 133.2067 0001317  84.5416 275.5727 15.08832943 69765
STARLINK-4130           
1 53263U 22086X   23295.86068960 -.00000409  00000+0 -76090-5 0  9992
2 53263  53.2157 134.4466 0001423  76.4733 283.6418 15.08830293 69907
STARLINK-3950           
1 53264U 22086Y   23295.86805168 -.00001760  00000+0 -92498-4 0  9992
2 53264  53.2173 134.4144 0001706  83.9583 276.1604 15.08835247 69907
STARLINK-4097           
1 53265U 22086Z   23296.18453471 -.00000871  00000+0 -36642-4 0  9996
2 53265  53.2154 132.9920 0001615 108.5065 251.6102 15.08836644 69778
STARLINK-4058           
1 53266U 22086AA  23295.85701344  .00000261  00000+0  34484-4 0  9998
2 53266  53.2163 134.4642 0001043 100.2254 259.8856 15.08832011 69906
STARLINK-4060           
1 53267U 22086AB  23295.91221144  .00002831  00000+0  19594-3 0  9990
2 53267  53.2158 134.2161 0001379  95.8645 264.2504 15.08834024 69917
STARLINK-4109           
1 53268U 22086AC  23295.84964966 -.00000106  00000+0  11428-4 0  9992
2 53268  53.2170 134.4962 0001341  98.6033 261.5112 15.08833580 69724
STARLINK-4057           
1 53269U 22086AD  23295.83953529 -.00000749  00000+0 -28983-4 0  9993
2 53269  53.2156 124.5428 0001771  83.0596 277.0598 15.08829814 69854
STARLINK-4069           
1 53271U 22086AF  23295.83217526  .00001815  00000+0  13212-3 0  9997
2 53271  53.2156 124.5760 0001381  95.9682 264.1468 15.08833107 69854
STARLINK-4122           
1 53272U 22086AG  23295.90945118  .00001380  00000+0  10479-3 0  9990
2 53272  53.2149 124.2277 0001262  87.9070 272.2067 15.08833485 70044
STARLINK-4051           
1 53273U 22086AH  23296.15601290  .00001385  00000+0  10508-3 0  9997
2 53273  53.2165 123.1205 0001275  92.2281 267.8857 15.08834893 69903
STARLINK-4050           
1 53274U 22086AJ  23295.83585530  .00001331  00000+0  10172-3 0  9998
2 53274  53.2157 124.5587 0001363  93.5644 266.5504 15.08841239 69859
STARLINK-4179           
1 53275U 22086AK  23295.82113080  .00002772  00000+0  19220-3 0  9998
2 53275  53.2150 124.6233 0001522  97.4616 262.6549 15.08841436 70027
STARLINK-4174           
1 53276U 22086AL  23295.82848933  .00000473  00000+0  47834-4 0  9990
2 53276  53.2158 124.5916 0001169  81.6473 278.4652 15.08834156 70027
STARLINK-4178           
1 53277U 22086AM  23296.14498448  .00008065  00000+0  52407-3 0  9995
2 53277  53.2146 123.1971 0001357  96.8986 263.2161 15.08849935 69900
STARLINK-4180           
1 53278U 22086AN  23295.81745363  .00000279  00000+0  35621-4 0  9999
2 53278  53.2145 124.6392 0001323  83.9854 276.1289 15.08830321 70025
STARLINK-4169           
1 53280U 22086AQ  23295.67251005 -.00000988  00000+0 -43983-4 0  9990
2 53280  53.2154  79.9623 0001258  77.4777 282.6356 15.08833567 70646
STARLINK-4182           
1 53281U 22086AR  23295.80273367  .00000715  00000+0  63015-4 0  9995
2 53281  53.2162 124.7091 0001461  98.3714 261.7443 15.08833734 70026
STARLINK-4164           
1 53282U 22086AS  23295.81008943  .00002622  00000+0  18274-3 0  9998
2 53282  53.2164 124.6709 0001483  93.3608 266.7554 15.08841867 70029
STARLINK-4175           
1 53283U 22086AT  23295.79905837  .00001674  00000+0  12328-3 0  9994
2 53283  53.2154 124.7228 0001491  89.9055 270.2108 15.08832382 70029
STARLINK-4172           
1 53284U 22086AU  23295.80641206  .00001513  00000+0  11312-3 0  9998
2 53284  53.2151 124.6874 0001365  94.8353 265.2795 15.08837212 70022
STARLINK-4173           
1 53285U 22086AV  23295.85425312  .00002172  00000+0  15453-3 0  9994
2 53285  53.2156 124.4752 0001445  89.0316 271.0842 15.08836378 70025
STARLINK-4165           
1 53286U 22086AW  23295.79633084 -.00001940  00000+0 -10385-3 0  9998
2 53286  53.2151 124.7451 0001495  80.2931 279.8230 15.08829024 70017
STARLINK-4107           
1 53287U 22086AX  23296.17809060  .00001723  00000+0  12630-3 0  9993
2 53287  53.2147 123.0226 0001415  85.4557 274.6596 15.08838132 69913
STARLINK-4162           
1 53288U 22086AY  23295.79169786  .00002633  00000+0  18353-3 0  9994
2 53288  53.2158 124.7522 0001585  88.3599 271.7575 15.08831279 70012
STARLINK-4176           
1 53289U 22086AZ  23295.82345111 -.00001000  00000+0 -44785-4 0  9995
2 53289  53.2156 119.7569 0001290  82.2662 277.8476 15.08826692 69921
STARLINK-4149           
1 53290U 22086BA  23295.85056936  .00003882  00000+0  26182-3 0  9992
2 53290  53.2153 124.4917 0001300  97.9767 262.1373 15.08842794 70028
STARLINK-4166           
1 53291U 22086BB  23295.79028827  .00000412  00000+0  44009-4 0  9999
2 53291  53.2149 119.5499 0001477  84.9501 275.1659 15.08831985 70088
STARLINK-4159           
1 53292U 22086BC  23295.79539796  .00000871  00000+0  72812-4 0  9994
2 53292  53.2157 124.9193 0001536  92.4635 267.6533 15.08832405 70015
STARLINK-4148           
1 53293U 22086BD  23295.81468968 -.00001383  00000+0 -68850-4 0  9998
2 53293  53.2158 114.6429 0001351  81.1074 279.0071 15.08830326 70151
STARLINK-4146           
1 53294U 22086BE  23296.16379218  .00900642  00000+0  49879-1 0  9998
2 53294  53.2161 112.9151 0003828 338.3390  21.7441 15.10607042 70050
2022-087A               
1 53299U 22087A   23296.17556304  .00018790  00000+0  60522-3 0  9992
2 53299  97.3562   9.5681 0012677 120.7772 239.4720 15.32167065 69064
2022-087B               
1 53300U 22087B   23296.19823480  .00015650  00000+0  52449-3 0  9990
2 53300  97.3560   9.3937 0013536 130.1487 230.0942 15.30915815 69065
2022-087C               
1 53301U 22087C   23296.15594821  .00015482  00000+0  52393-3 0  9992
2 53301  97.3560   9.2837 0014320 130.3008 229.9486 15.30593004 69058
2022-087D               
1 53302U 22087D   23296.20410557  .00048153  00000+0  11430-2 0  9999
2 53302  97.3566  12.1643 0012878 154.5656 205.6227 15.41468616 69243
2022-087E               
1 53303U 22087E   23296.18738962  .00021870  00000+0  67674-3 0  9999
2 53303  97.3615  10.4137 0013882 133.1316 227.1089 15.33401311 69111
YAOGAN-35 03A           
1 53316U 22088A   23296.04994302  .00012221  00000+0  50560-3 0  9997
2 53316  34.9985 167.3802 0012955  58.6712 301.5270 15.23087091 68767
YAOGAN-35 03B           
1 53318U 22088C   23296.11365853  .00015979  00000+0  66464-3 0  9993
2 53318  34.9925 166.8715 0005225  48.5755 311.5408 15.22926216 68772
